NORAD_CAT_ID,OBJECT_NAME,OBJECT_TYPE,EPOCH,MEAN_MOTION,ECCENTRICITY,INCLINATION,RA_OF_ASC_NODE,ARG_OF_PERICENTER,MEAN_ANOMALY,BSTAR,MEAN_MOTION_DOT,MEAN_MOTION_DDOT,TLE_LINE0,TLE_LINE1,TLE_LINE2,SEMIMAJOR_AXIS,PERIOD,APOGEE,PERIGEE,DECAYED
51727.0,STARLINK-3532,PAYLOAD,2023-03-07 17:09:05,15.08858709,7.34e-05,53.2152,218.1208,87.8803,272.2273,0.00034576,5.222e-05,0.0,0 STARLINK-3532,1 51727U 22016P   23066.71464653  .00005222  00000-0  34576-3 0  9995,2 51727  53.2152 218.1208 0000734  87.8803 272.2273 15.08858709 57662,6917.823,95.436,540.196,539.18,0.0
51727.0,STARLINK-3532,PAYLOAD,2023-03-08 10:38:20,15.08822217,0.0001061,53.2189,214.851,90.1333,269.9781,-0.0003773,-6.284e-05,0.0,0 STARLINK-3532,1 51727U 22016P   23067.44329855 -.00006284  00000-0 -37730-3 0  9996,2 51727  53.2189 214.8510 0001061  90.1333 269.9781 15.08822217 58832,6917.935,95.439,540.534,539.066,0.0
51727.0,STARLINK-3532,PAYLOAD,2023-03-08 18:35:16,15.08834519,0.0001041,53.2165,213.3629,83.3766,276.7345,-6.7287e-05,-1.358e-05,0.0,0 STARLINK-3532,1 51727U 22016P   23067.77449602 -.00001358  00000-0 -67287-4 0  9993,2 51727  53.2165 213.3629 0001041  83.3766 276.7345 15.08834519 58888,6917.897,95.438,540.482,539.042,0.0
51727.0,STARLINK-3532,PAYLOAD,2023-03-09 18:26:02,15.08865952,6.37e-05,53.2176,208.9019,45.3994,314.705,0.00058282,9.007e-05,0.0,0 STARLINK-3532,1 51727U 22016P   23068.76808619  .00009007  00000-0  58282-3 0  9991,2 51727  53.2176 208.9019 0000637  45.3994 314.7050 15.08865952 59033,6917.801,95.436,540.107,539.225,0.0
51727.0,STARLINK-3532,PAYLOAD,2023-03-10 18:16:51,15.08839151,0.0001435,53.2159,204.4414,75.1997,284.9154,0.00014097,1.956e-05,0.0,0 STARLINK-3532,1 51727U 22016P   23069.76170151  .00001956  00000-0  14097-3 0  9996,2 51727  53.2159 204.4414 0001435  75.1997 284.9154 15.08839151 59186,6917.883,95.438,540.741,538.755,0.0
51727.0,STARLINK-3532,PAYLOAD,2023-03-11 02:13:47,15.08829833,0.0001644,53.2155,202.9547,70.3702,289.7467,-4.736e-05,-1.041e-05,0.0,0 STARLINK-3532,1 51727U 22016P   23070.09290701 -.00001041  00000-0 -47360-4 0  9995,2 51727  53.2155 202.9547 0001644  70.3702 289.7467 15.08829833 59237,6917.911,95.438,540.914,538.639,0.0
51727.0,STARLINK-3532,PAYLOAD,2023-03-11 08:35:19,15.08832788,0.0001595,53.2155,201.7666,64.6847,295.431,-3.3567e-05,-8.22e-06,0.0,0 STARLINK-3532,1 51727U 22016P   23070.35786877 -.00000822  00000-0 -33567-4 0  9998,2 51727  53.2155 201.7666 0001595  64.6847 295.4310 15.08832788 58218,6917.902,95.438,540.871,538.664,0.0
51727.0,STARLINK-3532,PAYLOAD,2023-03-11 18:07:37,15.08852253,0.000124,53.217,199.9796,78.3275,281.7857,4.5487e-05,4.36e-06,0.0,0 STARLINK-3532,1 51727U 22016P   23070.75529526  .00000436  00000-0  45487-4 0  9991,2 51727  53.2170 199.9796 0001240  78.3275 281.7857 15.08852253 59338,6917.843,95.437,540.566,538.85,0.0
51727.0,STARLINK-3532,PAYLOAD,2023-03-12 08:26:07,15.08825971,0.0001564,53.2156,197.3061,72.7436,287.3727,0.00012186,1.651e-05,0.0,0 STARLINK-3532,1 51727U 22016P   23071.35147585  .00001651  00000-0  12186-3 0  9998,2 51727  53.2156 197.3061 0001564  72.7436 287.3727 15.08825971 59420,6917.923,95.438,540.87,538.706,0.0
51727.0,STARLINK-3532,PAYLOAD,2023-03-12 11:36:53,15.08827478,0.0001614,53.2165,196.7123,70.0336,290.083,0.00011598,1.558e-05,0.0,0 STARLINK-3532,1 51727U 22016P   23071.48395645  .00001558  00000-0  11598-3 0  9996,2 51727  53.2165 196.7123 0001614  70.0336 290.0830 15.08827478 58382,6917.919,95.438,540.9,538.667,0.0
51727.0,STARLINK-3532,PAYLOAD,2023-03-12 16:23:02,15.08845023,0.0001202,53.215,195.82,77.5551,282.5575,0.00033944,5.119e-05,0.0,0 STARLINK-3532,1 51727U 22016P   23071.68266678  .00005119  00000-0  33944-3 0  9997,2 51727  53.2150 195.8200 0001202  77.5551 282.5575 15.08845023 59475,6917.865,95.437,540.562,538.899,0.0
51727.0,STARLINK-3532,PAYLOAD,2023-03-13 08:16:54,15.08837676,0.0001324,53.217,192.8473,80.5921,279.522,0.00020031,2.901e-05,0.0,0 STARLINK-3532,1 51727U 22016P   23072.34507272  .00002901  00000-0  20031-3 0  9998,2 51727  53.2170 192.8473 0001324  80.5921 279.5220 15.08837676 59575,6917.887,95.438,540.668,538.837,0.0
51727.0,STARLINK-3532,PAYLOAD,2023-03-13 13:03:03,15.08841376,0.0001377,53.2171,191.9554,86.2767,273.8383,0.00021993,3.214e-05,0.0,0 STARLINK-3532,1 51727U 22016P   23072.54379070  .00003214  00000-0  21993-3 0  9999,2 51727  53.2171 191.9554 0001377  86.2767 273.8383 15.08841376 58540,6917.876,95.437,540.694,538.789,0.0
51727.0,STARLINK-3532,PAYLOAD,2023-03-14 14:29:13,15.08848949,0.0001018,53.2172,187.1978,85.0249,275.086,0.00022918,3.362e-05,0.0,0 STARLINK-3532,1 51727U 22016P   23073.60362392  .00003362  00000-0  22918-3 0  9998,2 51727  53.2172 187.1978 0001018  85.0249 275.0860 15.08848949 59764,6917.853,95.437,540.422,539.014,0.0
51727.0,STARLINK-3532,PAYLOAD,2023-03-15 00:01:31,15.08864874,0.0001016,53.2166,185.4142,105.263,254.8474,0.0003171,4.766e-05,0.0,0 STARLINK-3532,1 51727U 22016P   23074.00105674  .00004766  00000-0  31710-3 0  9990,2 51727  53.2166 185.4142 0001016 105.2630 254.8474 15.08864874 59826,6917.804,95.436,540.372,538.967,0.0
51727.0,STARLINK-3532,PAYLOAD,2023-03-15 12:44:37,15.08836658,0.0001581,53.2173,183.0343,106.5479,253.5687,-9.4436e-05,-1.791e-05,0.0,0 STARLINK-3532,1 51727U 22016P   23074.53098793 -.00001791  00000-0 -94436-4 0  9993,2 51727  53.2173 183.0343 0001581 106.5479 253.5687 15.08836658 59903,6917.891,95.438,540.849,538.662,0.0
51727.0,STARLINK-3532,PAYLOAD,2023-03-16 12:35:24,15.08832774,0.0001633,53.2181,178.5759,110.7227,249.394,-8.5007e-05,-1.64e-05,0.0,0 STARLINK-3532,1 51727U 22016P   23075.52459400 -.00001640  00000-0 -85007-4 0  9996,2 51727  53.2181 178.5759 0001633 110.7227 249.3940 15.08832774 58996,6917.902,95.438,540.897,538.638,0.0
51727.0,STARLINK-3532,PAYLOAD,2023-03-16 17:21:34,15.08833314,0.0001555,53.2185,177.6843,111.7102,248.4056,-3.6183e-05,-8.64e-06,0.0,0 STARLINK-3532,1 51727U 22016P   23075.72331461 -.00000864  00000-0 -36183-4 0  9992,2 51727  53.2185 177.6843 0001555 111.7102 248.4056 15.08833314 60082,6917.901,95.438,540.842,538.69,0.0
51727.0,STARLINK-3532,PAYLOAD,2023-03-17 07:40:04,15.08810193,8.97e-05,53.218,175.008,101.5978,258.5115,-0.00010781,-2.002e-05,0.0,0 STARLINK-3532,1 51727U 22016P   23076.31949116 -.00002002  00000-0 -10781-3 0  9991,2 51727  53.2180 175.0080 0000897 101.5978 258.5115 15.08810193 60176,6917.971,95.439,540.457,539.216,0.0
51727.0,STARLINK-3532,PAYLOAD,2023-03-17 10:50:50,15.08819218,0.0001716,53.2176,174.4118,118.5884,241.5281,7.7101e-06,-1.65e-06,0.0,0 STARLINK-3532,1 51727U 22016P   23076.45196843 -.00000165  00000-0  77101-5 0  9995,2 51727  53.2176 174.4118 0001716 118.5884 241.5281 15.08819218 60196,6917.944,95.439,540.996,538.622,0.0
51727.0,STARLINK-3532,PAYLOAD,2023-03-17 23:33:54,15.08835553,0.000147,53.2164,172.0304,103.2635,256.8521,0.00017805,2.547e-05,0.0,0 STARLINK-3532,1 51727U 22016P   23076.98188500  .00002547  00000-0  17805-3 0  9992,2 51727  53.2164 172.0304 0001470 103.2635 256.8521 15.08835553 60271,6917.894,95.438,540.776,538.742,0.0
51727.0,STARLINK-3532,PAYLOAD,2023-03-18 13:52:21,15.0886846,0.0001228,53.2167,169.3531,121.2349,238.8763,0.00056522,8.726e-05,0.0,0 STARLINK-3532,1 51727U 22016P   23077.57802437  .00008726  00000-0  56522-3 0  9994,2 51727  53.2167 169.3531 0001228 121.2349 238.8763 15.08868460 60369,6917.793,95.436,540.508,538.809,0.0
51727.0,STARLINK-3532,PAYLOAD,2023-03-18 15:27:44,15.08869666,0.0001229,53.2167,169.0558,120.6209,239.4904,0.00057131,8.823e-05,0.0,0 STARLINK-3532,1 51727U 22016P   23077.64426314  .00008823  00000-0  57131-3 0  9993,2 51727  53.2167 169.0558 0001229 120.6209 239.4904 15.08869666 59310,6917.79,95.436,540.505,538.805,0.0
51727.0,STARLINK-3532,PAYLOAD,2023-03-19 05:46:13,15.08846123,0.0001949,53.217,166.3815,104.8972,255.2236,0.00026869,3.991e-05,0.0,0 STARLINK-3532,1 51727U 22016P   23078.24043602  .00003991  00000-0  26869-3 0  9990,2 51727  53.2170 166.3815 0001949 104.8972 255.2236 15.08846123 60465,6917.862,95.437,541.075,538.378,0.0
51727.0,STARLINK-3532,PAYLOAD,2023-03-19 12:07:45,15.08848973,0.0001278,53.216,165.1915,105.6731,254.4402,0.00017082,2.432e-05,0.0,0 STARLINK-3532,1 51727U 22016P   23078.50539172  .00002432  00000-0  17082-3 0  9997,2 51727  53.2160 165.1915 0001278 105.6731 254.4402 15.08848973 59446,6917.853,95.437,540.602,538.834,0.0
51727.0,STARLINK-3532,PAYLOAD,2023-03-19 15:18:31,15.08851335,0.0001269,53.2155,164.5963,105.7295,254.3837,0.00018271,2.622e-05,0.0,0 STARLINK-3532,1 51727U 22016P   23078.63786952  .00002622  00000-0  18271-3 0  9993,2 51727  53.2155 164.5963 0001269 105.7295 254.3837 15.08851335 59461,6917.846,95.437,540.589,538.833,0.0
51727.0,STARLINK-3532,PAYLOAD,2023-03-20 05:37:00,15.08843541,0.0001333,53.2178,161.9211,104.5787,255.5353,-7.1261e-05,-1.422e-05,0.0,0 STARLINK-3532,1 51727U 22016P   23079.23403187 -.00001422  00000-0 -71261-4 0  9994,2 51727  53.2178 161.9211 0001333 104.5787 255.5353 15.08843541 60613,6917.87,95.437,540.657,538.812,0.0
51727.0,STARLINK-3532,PAYLOAD,2023-03-20 11:58:32,15.08847437,0.0001441,53.2172,160.7311,98.6077,261.5078,-0.00018366,-3.21e-05,0.0,0 STARLINK-3532,1 51727U 22016P   23079.49898913 -.00003210  00000-0 -18366-3 0  9990,2 51727  53.2172 160.7311 0001441  98.6077 261.5078 15.08847437 59594,6917.858,95.437,540.72,538.726,0.0
51727.0,STARLINK-3532,PAYLOAD,2023-03-21 08:38:33,15.08841254,0.0001661,53.2163,156.8663,90.3313,269.7869,0.00011015,1.465e-05,0.0,0 STARLINK-3532,1 51727U 22016P   23080.36011363  .00001465  00000-0  11015-3 0  9996,2 51727  53.2163 156.8663 0001661  90.3313 269.7869 15.08841254 60788,6917.877,95.437,540.891,538.592,0.0
51727.0,STARLINK-3532,PAYLOAD,2023-03-21 10:13:56,15.08842588,0.0001663,53.2165,156.5692,89.0455,271.0728,0.00013113,1.8e-05,0.0,0 STARLINK-3532,1 51727U 22016P   23080.42635315  .00001800  00000-0  13113-3 0  9996,2 51727  53.2165 156.5692 0001663  89.0455 271.0728 15.08842588 59737,6917.872,95.437,540.888,538.587,0.0
